NORAD_CAT_ID,OBJECT_NAME,OBJECT_TYPE,EPOCH,MEAN_MOTION,ECCENTRICITY,INCLINATION,RA_OF_ASC_NODE,ARG_OF_PERICENTER,MEAN_ANOMALY,BSTAR,MEAN_MOTION_DOT,MEAN_MOTION_DDOT,TLE_LINE0,TLE_LINE1,TLE_LINE2,SEMIMAJOR_AXIS,PERIOD,APOGEE,PERIGEE,DECAYED
54184.0,STARLINK-5162,PAYLOAD,2023-06-13 23:58:14,15.08838046,7.4e-05,53.2151,171.5262,75.9509,284.1566,3.5295e-05,2.74e-06,0.0,0 STARLINK-5162,1 54184U 22141AD  23164.99877832  .00000274  00000-0  35295-4 0  9992,2 54184  53.2151 171.5262 0000740  75.9509 284.1566 15.08838046 35172,6917.886,95.438,540.263,539.239,0.0
54184.0,STARLINK-5162,PAYLOAD,2023-06-14 09:30:33,15.0884063,7.57e-05,53.2152,169.7422,75.9191,284.1885,3.2492e-05,2.3e-06,0.0,0 STARLINK-5162,1 54184U 22141AD  23165.39621705  .00000230  00000-0  32492-4 0  9991,2 54184  53.2152 169.7422 0000757  75.9191 284.1885 15.08840630 35003,6917.878,95.438,540.267,539.22,0.0
54184.0,STARLINK-5162,PAYLOAD,2023-06-14 17:27:28,15.08838194,7.6e-05,53.2156,168.2553,74.9334,285.1742,3.1041e-05,2.06e-06,0.0,0 STARLINK-5162,1 54184U 22141AD  23165.72741869  .00000206  00000-0  31041-4 0  9994,2 54184  53.2156 168.2553 0000760  74.9334 285.1742 15.08838194 35058,6917.886,95.438,540.277,539.225,0.0
54184.0,STARLINK-5162,PAYLOAD,2023-06-15 09:21:20,15.0883812,7.97e-05,53.2154,165.2812,75.2347,284.8734,5.8173e-05,6.38e-06,0.0,0 STARLINK-5162,1 54184U 22141AD  23166.38981887  .00000638  00000-0  58173-4 0  9997,2 54184  53.2154 165.2812 0000797  75.2347 284.8734 15.08838120 35381,6917.886,95.438,540.302,539.2,0.0
54184.0,STARLINK-5162,PAYLOAD,2023-06-16 06:01:20,15.08843143,8.18e-05,53.2155,161.4155,73.6804,286.4278,6.392e-05,7.3e-06,0.0,0 STARLINK-5162,1 54184U 22141AD  23167.25093567  .00000730  00000-0  63920-4 0  9992,2 54184  53.2155 161.4155 0000818  73.6804 286.4278 15.08843143 35285,6917.871,95.437,540.302,539.17,0.0
54184.0,STARLINK-5162,PAYLOAD,2023-06-16 17:09:02,15.08842528,8.35e-05,53.2155,159.334,73.4834,286.625,4.9099e-05,4.94e-06,0.0,0 STARLINK-5162,1 54184U 22141AD  23167.71461545  .00000494  00000-0  49099-4 0  9996,2 54184  53.2155 159.3340 0000835  73.4834 286.6250 15.08842528 35353,6917.873,95.437,540.315,539.16,0.0
54184.0,STARLINK-5162,PAYLOAD,2023-06-17 09:02:54,15.08841667,8.59e-05,53.2155,156.3599,79.4146,280.6943,4.4687e-05,4.24e-06,0.0,0 STARLINK-5162,1 54184U 22141AD  23168.37701546  .00000424  00000-0  44687-4 0  9998,2 54184  53.2155 156.3599 0000859  79.4146 280.6943 15.08841667 35451,6917.875,95.437,540.335,539.146,0.0
54184.0,STARLINK-5162,PAYLOAD,2023-06-18 05:42:55,15.08834615,8.89e-05,53.2152,152.494,79.4299,280.6793,-3.5425e-05,-8.51e-06,0.0,0 STARLINK-5162,1 54184U 22141AD  23169.23814365 -.00000851  00000-0 -35425-4 0  9994,2 54184  53.2152 152.4940 0000889  79.4299 280.6793 15.08834615 35815,6917.897,95.438,540.377,539.147,0.0
54184.0,STARLINK-5162,PAYLOAD,2023-06-19 05:33:42,15.08842221,9.34e-05,53.2153,148.0336,79.563,280.5467,5.0144e-05,5.1e-06,0.0,0 STARLINK-5162,1 54184U 22141AD  23170.23173743  .00000510  00000-0  50144-4 0  9999,2 54184  53.2153 148.0336 0000934  79.5630 280.5467 15.08842221 35962,6917.874,95.437,540.385,539.092,0.0
54184.0,STARLINK-5162,PAYLOAD,2023-06-19 15:06:01,15.08837789,9.29e-05,53.2153,146.2497,77.5302,282.5794,2.3626e-05,8.8e-07,0.0,0 STARLINK-5162,1 54184U 22141AD  23170.62918134  .00000088  00000-0  23626-4 0  9998,2 54184  53.2153 146.2497 0000929  77.5302 282.5794 15.08837789 35797,6917.887,95.438,540.395,539.109,0.0
54184.0,STARLINK-5162,PAYLOAD,2023-06-19 23:02:57,15.08832927,9.57e-05,53.2157,144.7636,80.44,279.6701,3.6864e-05,2.99e-06,0.0,0 STARLINK-5162,1 54184U 22141AD  23170.96038531  .00000299  00000-0  36864-4 0  9991,2 54184  53.2157 144.7636 0000957  80.4400 279.6701 15.08832927 36078,6917.902,95.438,540.429,539.105,0.0
54184.0,STARLINK-5162,PAYLOAD,2023-06-20 08:35:15,15.08839054,9.73e-05,53.2157,142.9794,80.143,279.9672,8.2071e-05,1.019e-05,0.0,0 STARLINK-5162,1 54184U 22141AD  23171.35782104  .00001019  00000-0  82071-4 0  9999,2 54184  53.2157 142.9794 0000973  80.1430 279.9672 15.08839054 36136,6917.883,95.438,540.421,539.075,0.0
54184.0,STARLINK-5162,PAYLOAD,2023-06-20 14:56:48,15.08834213,9.66e-05,53.2155,141.7896,79.5358,280.5743,2.7765e-05,1.54e-06,0.0,0 STARLINK-5162,1 54184U 22141AD  23171.62278643  .00000154  00000-0  27765-4 0  9995,2 54184  53.2155 141.7896 0000966  79.5358 280.5743 15.08834213 36170,6917.898,95.438,540.431,539.095,0.0
54184.0,STARLINK-5162,PAYLOAD,2023-06-20 21:18:21,15.08836329,9.7e-05,53.2153,140.6003,83.7481,276.3622,-1.5752e-05,-5.38e-06,0.0,0 STARLINK-5162,1 54184U 22141AD  23171.88774746 -.00000538  00000-0 -15752-4 0  9999,2 54184  53.2153 140.6003 0000970  83.7481 276.3622 15.08836329 35982,6917.892,95.438,540.428,539.086,0.0
54184.0,STARLINK-5162,PAYLOAD,2023-06-21 06:50:39,15.08841845,0.0001,53.2153,138.8163,87.1475,272.9631,4.4443e-05,4.2e-06,0.0,0 STARLINK-5162,1 54184U 22141AD  23172.28518250  .00000420  00000-0  44443-4 0  9997,2 54184  53.2153 138.8163 0001000  87.1475 272.9631 15.08841845 36278,6917.875,95.437,540.432,539.048,0.0
54184.0,STARLINK-5162,PAYLOAD,2023-06-21 14:47:35,15.0883804,9.99e-05,53.2153,137.3291,90.3691,269.7415,-8.2019e-06,-4.18e-06,0.0,0 STARLINK-5162,1 54184U 22141AD  23172.61638633 -.00000418  00000-0 -82019-5 0  9993,2 54184  53.2153 137.3291 0000999  90.3691 269.7415 15.08838040 36093,6917.886,95.438,540.442,539.06,0.0
54184.0,STARLINK-5162,PAYLOAD,2023-06-22 14:38:23,15.08833197,0.0001184,53.2159,132.8682,90.229,269.8838,2.5637e-05,1.2e-06,0.0,0 STARLINK-5162,1 54184U 22141AD  23173.60999087  .00000120  00000-0  25637-4 0  9996,2 54184  53.2159 132.8682 0001184  90.2290 269.8838 15.08833197 36474,6917.901,95.438,540.585,538.947,0.0
54184.0,STARLINK-5162,PAYLOAD,2023-06-23 06:32:14,15.08842162,0.0001134,53.2157,129.8938,98.7705,261.3416,6.4746e-05,7.43e-06,0.0,0 STARLINK-5162,1 54184U 22141AD  23174.27238501  .00000743  00000-0  64746-4 0  9992,2 54184  53.2157 129.8938 0001134  98.7705 261.3416 15.08842162 36573,6917.874,95.437,540.523,538.954,0.0
54184.0,STARLINK-5162,PAYLOAD,2023-06-24 14:19:56,15.08843988,0.0001144,53.216,123.9472,98.2351,261.8771,3.8622e-05,3.27e-06,0.0,0 STARLINK-5162,1 54184U 22141AD  23175.59718469  .00000327  00000-0  38622-4 0  9996,2 54184  53.2160 123.9472 0001144  98.2351 261.8771 15.08843988 36776,6917.868,95.437,540.525,538.942,0.0
54184.0,STARLINK-5162,PAYLOAD,2023-06-26 02:53:49,15.08841295,0.0001228,53.2161,117.1088,90.0509,270.0623,1.5893e-05,-3.5e-07,0.0,0 STARLINK-5162,1 54184U 22141AD  23177.12070914 -.00000035  00000-0  15893-4 0  9995,2 54184  53.2161 117.1088 0001228  90.0509 270.0623 15.08841295 37007,6917.876,95.437,540.591,538.892,0.0
54184.0,STARLINK-5162,PAYLOAD,2023-06-26 15:36:54,15.08833177,0.0001231,53.2158,114.7306,94.8703,265.2429,1.5111e-05,-4.7e-07,0.0,0 STARLINK-5162,1 54184U 22141AD  23177.65063502 -.00000047  00000-0  15111-4 0  9994,2 54184  53.2158 114.7306 0001231  94.8703 265.2429 15.08833177 37089,6917.901,95.438,540.618,538.915,0.0
54184.0,STARLINK-5162,PAYLOAD,2023-06-28 04:10:47,15.08837508,0.0001123,53.2162,107.8911,88.2519,271.8602,8.0015e-05,9.86e-06,0.0,0 STARLINK-5162,1 54184U 22141AD  23179.17415581  .00000986  00000-0  80015-4 0  9997,2 54184  53.2162 107.8911 0001123  88.2519 271.8602 15.08837508 37315,6917.888,95.438,540.53,538.976,0.0
54184.0,STARLINK-5162,PAYLOAD,2023-06-29 18:20:02,15.08836665,0.000123,53.2166,100.7537,82.733,277.3802,5.1034e-05,5.24e-06,0.0,0 STARLINK-5162,1 54184U 22141AD  23180.76392114  .00000524  00000-0  51034-4 0  9997,2 54184  53.2166 100.7537 0001230  82.7330 277.3802 15.08836665 37556,6917.891,95.438,540.606,538.905,0.0
54184.0,STARLINK-5162,PAYLOAD,2023-06-30 11:49:17,15.0883612,9.92e-05,53.2161,97.4821,84.6859,275.4246,-2.2448e-05,-6.45e-06,0.0,0 STARLINK-5162,1 54184U 22141AD  23181.49256209 -.00000645  00000-0 -22448-4 0  9995,2 54184  53.2161  97.4821 0000992  84.6859 275.4246 15.08836120 37669,6917.892,95.438,540.444,539.071,0.0
54184.0,STARLINK-5162,PAYLOAD,2023-07-02 00:23:08,15.08844285,0.0001099,53.2168,90.643,87.235,272.8768,0.00010219,1.339e-05,0.0,0 STARLINK-5162,1 54184U 22141AD  23183.01607548  .00001339  00000-0  10219-3 0  9992,2 54184  53.2168  90.6430 0001099  87.2350 272.8768 15.08844285 37897,6917.867,95.437,540.493,538.972,0.0
54184.0,STARLINK-5162,PAYLOAD,2023-07-03 00:13:56,15.08839924,0.000139,53.2174,86.1825,75.751,284.3637,6.0972e-05,6.83e-06,0.0,0 STARLINK-5162,1 54184U 22141AD  23184.00968047  .00000683  00000-0  60972-4 0  9999,2 54184  53.2174  86.1825 0001390  75.7510 284.3637 15.08839924 38041,6917.881,95.438,540.707,538.784,0.0
54184.0,STARLINK-5162,PAYLOAD,2023-07-03 03:24:42,15.08845085,0.0001198,53.217,85.587,88.9587,271.1542,9.7768e-05,1.269e-05,0.0,0 STARLINK-5162,1 54184U 22141AD  23184.14215481  .00001269  00000-0  97768-4 0  9995,2 54184  53.2170  85.5870 0001198  88.9587 271.1542 15.08845085 38062,6917.865,95.437,540.559,538.901,0.0
54184.0,STARLINK-5162,PAYLOAD,2023-07-04 01:40:06,15.08841967,0.0001308,53.2172,81.4249,84.2139,275.9002,-3.0963e-06,-3.37e-06,0.0,0 STARLINK-5162,1 54184U 22141AD  23185.06951998 -.00000337  00000-0 -30963-5 0  9999,2 54184  53.2172  81.4249 0001308  84.2139 275.9002 15.08841967 38208,6917.874,95.437,540.644,538.835,0.0
54184.0,STARLINK-5162,PAYLOAD,2023-07-05 09:27:49,15.08836926,0.0001256,53.2171,75.478,88.5266,271.587,-4.0722e-05,-9.36e-06,0.0,0 STARLINK-5162,1 54184U 22141AD  23186.39432619 -.00000936  00000-0 -40722-4 0  9998,2 54184  53.2171  75.4780 0001256  88.5266 271.5870 15.08836926 38406,6917.89,95.438,540.624,538.886,0.0
54184.0,STARLINK-5162,PAYLOAD,2023-07-06 18:50:55,15.08839559,0.0001254,53.2173,69.2343,95.5081,264.6054,6.9143e-05,8.13e-06,0.0,0 STARLINK-5162,1 54184U 22141AD  23187.78536530  .00000813  00000-0  69143-4 0  9999,2 54184  53.2173  69.2343 0001254  95.5081 264.6054 15.08839559 38610,6917.882,95.438,540.614,538.879,0.0
